STARLINK-31932          
1 59929U 24106H   26068.33334491  .00005463  00000+0  20791-3 0  9998
2 59929  43.0026 331.3327 0001588 281.5974  95.7698 15.27579229  5773
FLOCK 4G-1              
1 62666U 25009BK  26068.75951132  .00013534  00000+0  50654-3 0  9995
2 62666  97.4059 151.3158 0003180 323.1401  36.9619 15.27421081 63725
